CCSDS_OMM_VERS = 2.0
CREATION_DATE  = 
ORIGINATOR     = 

OBJECT_NAME    = COSMOS 1933
OBJECT_ID      = 1988-020A
CENTER_NAME    = EARTH
REF_FRAME      = TEME
TIME_SYSTEM    = UTC
MEAN_ELEMENT_THEORY = SGP/SGP4

EPOCH          = 2026-02-11T02:10:42.982464
MEAN_MOTION    = 15.17751572
ECCENTRICITY   = .00030236
INCLINATION    = 82.5122
RA_OF_ASC_NODE = 277.2289
ARG_OF_PERICENTER = 310.3088
MEAN_ANOMALY   = 49.7881

EPHEMERIS_TYPE = 0
CLASSIFICATION_TYPE = U
NORAD_CAT_ID   = 18958
ELEMENT_SET_NO = 999
REV_AT_EPOCH   = 4619
BSTAR          = .17207578E-3
MEAN_MOTION_DOT = .3503E-4
MEAN_MOTION_DDOT = 0

CCSDS_OMM_VERS = 2.0
CREATION_DATE  = 
ORIGINATOR     = 

OBJECT_NAME    = SL-3 R/B
OBJECT_ID      = 1988-032B
CENTER_NAME    = EARTH
REF_FRAME      = TEME
TIME_SYSTEM    = UTC
MEAN_ELEMENT_THEORY = SGP/SGP4

EPOCH          = 2026-02-11T04:44:52.560384
MEAN_MOTION    = 15.19567005
ECCENTRICITY   = .00251678
INCLINATION    = 97.5151
RA_OF_ASC_NODE = 25.5585
ARG_OF_PERICENTER = 330.4491
MEAN_ANOMALY   = 29.5319

EPHEMERIS_TYPE = 0
CLASSIFICATION_TYPE = U
NORAD_CAT_ID   = 19046
ELEMENT_SET_NO = 999
REV_AT_EPOCH   = 4808
BSTAR          = .31996574E-3
MEAN_MOTION_DOT = .6793E-4
MEAN_MOTION_DDOT = 0

CCSDS_OMM_VERS = 2.0
CREATION_DATE  = 
ORIGINATOR     = 

OBJECT_NAME    = SL-16 R/B
OBJECT_ID      = 1988-039B
CENTER_NAME    = EARTH
REF_FRAME      = TEME
TIME_SYSTEM    = UTC
MEAN_ELEMENT_THEORY = SGP/SGP4

EPOCH          = 2026-02-11T04:54:26.020512
MEAN_MOTION    = 14.19611778
ECCENTRICITY   = .0021128
INCLINATION    = 71.0147
RA_OF_ASC_NODE = 124.5539
ARG_OF_PERICENTER = 14.6656
MEAN_ANOMALY   = 345.5077

EPHEMERIS_TYPE = 0
CLASSIFICATION_TYPE = U
NORAD_CAT_ID   = 19120
ELEMENT_SET_NO = 999
REV_AT_EPOCH   = 95462
BSTAR          = .40112057E-4
MEAN_MOTION_DOT = .37E-6
MEAN_MOTION_DDOT = 0

CCSDS_OMM_VERS = 2.0
CREATION_DATE  = 
ORIGINATOR     = 

OBJECT_NAME    = COSMOS 1953
OBJECT_ID      = 1988-050A
CENTER_NAME    = EARTH
REF_FRAME      = TEME
TIME_SYSTEM    = UTC
MEAN_ELEMENT_THEORY = SGP/SGP4

EPOCH          = 2026-02-10T20:17:53.789280
MEAN_MOTION    = 15.27984376
ECCENTRICITY   = .00107878
INCLINATION    = 82.5092
RA_OF_ASC_NODE = 185.2273
ARG_OF_PERICENTER = 214.6327
MEAN_ANOMALY   = 145.4211

EPHEMERIS_TYPE = 0
CLASSIFICATION_TYPE = U
NORAD_CAT_ID   = 19210
ELEMENT_SET_NO = 999
REV_AT_EPOCH   = 3368
BSTAR          = .38908276E-3
MEAN_MOTION_DOT = .10672E-3
MEAN_MOTION_DDOT = 0

CCSDS_OMM_VERS = 2.0
CREATION_DATE  = 
ORIGINATOR     = 

OBJECT_NAME    = SL-8 R/B
OBJECT_ID      = 1988-053B
CENTER_NAME    = EARTH
REF_FRAME      = TEME
TIME_SYSTEM    = UTC
MEAN_ELEMENT_THEORY = SGP/SGP4

EPOCH          = 2026-02-10T19:55:56.889120
MEAN_MOTION    = 14.38899516
ECCENTRICITY   = .00204975
INCLINATION    = 74.0482
RA_OF_ASC_NODE = 161.9697
ARG_OF_PERICENTER = 346.1390
MEAN_ANOMALY   = 130.7143

EPHEMERIS_TYPE = 0
CLASSIFICATION_TYPE = U
NORAD_CAT_ID   = 19257
ELEMENT_SET_NO = 999
REV_AT_EPOCH   = 97273
BSTAR          = .95755176E-4
MEAN_MOTION_DOT = .269E-5
MEAN_MOTION_DDOT = 0

CCSDS_OMM_VERS = 2.0
CREATION_DATE  = 
ORIGINATOR     = 

OBJECT_NAME    = COSMOS 1975
OBJECT_ID      = 1988-093A
CENTER_NAME    = EARTH
REF_FRAME      = TEME
TIME_SYSTEM    = UTC
MEAN_ELEMENT_THEORY = SGP/SGP4

EPOCH          = 2026-02-10T16:12:56.652480
MEAN_MOTION    = 15.27594141
ECCENTRICITY   = .00103381
INCLINATION    = 82.5220
RA_OF_ASC_NODE = 144.7854
ARG_OF_PERICENTER = 264.4267
MEAN_ANOMALY   = 95.5793

EPHEMERIS_TYPE = 0
CLASSIFICATION_TYPE = U
NORAD_CAT_ID   = 19573
ELEMENT_SET_NO = 999
REV_AT_EPOCH   = 1528
BSTAR          = .33751435E-3
MEAN_MOTION_DOT = .9151E-4
MEAN_MOTION_DDOT = 0

CCSDS_OMM_VERS = 2.0
CREATION_DATE  = 
ORIGINATOR     = 

OBJECT_NAME    = SL-14 R/B
OBJECT_ID      = 1988-093B
CENTER_NAME    = EARTH
REF_FRAME      = TEME
TIME_SYSTEM    = UTC
MEAN_ELEMENT_THEORY = SGP/SGP4

EPOCH          = 2026-02-11T06:27:18.869760
MEAN_MOTION    = 14.85626192
ECCENTRICITY   = .00220463
INCLINATION    = 82.5279
RA_OF_ASC_NODE = 66.8529
ARG_OF_PERICENTER = 123.2766
MEAN_ANOMALY   = 345.9342

EPHEMERIS_TYPE = 0
CLASSIFICATION_TYPE = U
NORAD_CAT_ID   = 19574
ELEMENT_SET_NO = 999
REV_AT_EPOCH   = 99711
BSTAR          = .53252939E-4
MEAN_MOTION_DOT = .488E-5
MEAN_MOTION_DDOT = 0

CCSDS_OMM_VERS = 2.0
CREATION_DATE  = 
ORIGINATOR     = 

OBJECT_NAME    = SL-16 R/B
OBJECT_ID      = 1988-102B
CENTER_NAME    = EARTH
REF_FRAME      = TEME
TIME_SYSTEM    = UTC
MEAN_ELEMENT_THEORY = SGP/SGP4

EPOCH          = 2026-02-10T20:26:29.047776
MEAN_MOTION    = 14.16148449
ECCENTRICITY   = .00125604
INCLINATION    = 70.9978
RA_OF_ASC_NODE = 207.9623
ARG_OF_PERICENTER = 45.7314
MEAN_ANOMALY   = 314.4838

EPHEMERIS_TYPE = 0
CLASSIFICATION_TYPE = U
NORAD_CAT_ID   = 19650
ELEMENT_SET_NO = 999
REV_AT_EPOCH   = 92309
BSTAR          = .18123026E-3
MEAN_MOTION_DOT = .311E-5
MEAN_MOTION_DDOT = 0

CCSDS_OMM_VERS = 2.0
CREATION_DATE  = 
ORIGINATOR     = 

OBJECT_NAME    = INTERCOSMOS 24
OBJECT_ID      = 1989-080A
CENTER_NAME    = EARTH
REF_FRAME      = TEME
TIME_SYSTEM    = UTC
MEAN_ELEMENT_THEORY = SGP/SGP4

EPOCH          = 2026-02-11T04:39:43.339968
MEAN_MOTION    = 12.59521082
ECCENTRICITY   = .11878928
INCLINATION    = 82.6064
RA_OF_ASC_NODE = 121.6507
ARG_OF_PERICENTER = 354.3538
MEAN_ANOMALY   = 4.5081

EPHEMERIS_TYPE = 0
CLASSIFICATION_TYPE = U
NORAD_CAT_ID   = 20261
ELEMENT_SET_NO = 999
REV_AT_EPOCH   = 66346
BSTAR          = .1588177E-3
MEAN_MOTION_DOT = .549E-5
MEAN_MOTION_DDOT = 0

CCSDS_OMM_VERS = 2.0
CREATION_DATE  = 
ORIGINATOR     = 

OBJECT_NAME    = SL-14 R/B
OBJECT_ID      = 1989-080C
CENTER_NAME    = EARTH
REF_FRAME      = TEME
TIME_SYSTEM    = UTC
MEAN_ELEMENT_THEORY = SGP/SGP4

EPOCH          = 2026-02-10T21:50:03.008256
MEAN_MOTION    = 12.50460277
ECCENTRICITY   = .12294943
INCLINATION    = 82.5947
RA_OF_ASC_NODE = 190.3767
ARG_OF_PERICENTER = 245.9844
MEAN_ANOMALY   = 100.7933

EPHEMERIS_TYPE = 0
CLASSIFICATION_TYPE = U
NORAD_CAT_ID   = 20262
ELEMENT_SET_NO = 999
REV_AT_EPOCH   = 65680
BSTAR          = .14193243E-3
MEAN_MOTION_DOT = .469E-5
MEAN_MOTION_DDOT = 0

CCSDS_OMM_VERS = 2.0
CREATION_DATE  = 
ORIGINATOR     = 

OBJECT_NAME    = DELTA 1 R/B
OBJECT_ID      = 1989-089B
CENTER_NAME    = EARTH
REF_FRAME      = TEME
TIME_SYSTEM    = UTC
MEAN_ELEMENT_THEORY = SGP/SGP4

EPOCH          = 2026-02-10T23:53:56.073696
MEAN_MOTION    = 14.50640671
ECCENTRICITY   = .0068386
INCLINATION    = 97.0724
RA_OF_ASC_NODE = 253.6766
ARG_OF_PERICENTER = 205.9853
MEAN_ANOMALY   = 153.7907

EPHEMERIS_TYPE = 0
CLASSIFICATION_TYPE = U
NORAD_CAT_ID   = 20323
ELEMENT_SET_NO = 999
REV_AT_EPOCH   = 89186
BSTAR          = .10579239E-3
MEAN_MOTION_DOT = .392E-5
MEAN_MOTION_DDOT = 0

CCSDS_OMM_VERS = 2.0
CREATION_DATE  = 
ORIGINATOR     = 

OBJECT_NAME    = ARIANE 40 R/B
OBJECT_ID      = 1990-005H
CENTER_NAME    = EARTH
REF_FRAME      = TEME
TIME_SYSTEM    = UTC
MEAN_ELEMENT_THEORY = SGP/SGP4

EPOCH          = 2026-02-11T03:05:27.138048
MEAN_MOTION    = 14.39852498
ECCENTRICITY   = .00089296
INCLINATION    = 98.3144
RA_OF_ASC_NODE = 103.5739
ARG_OF_PERICENTER = 286.1162
MEAN_ANOMALY   = 73.9043

EPHEMERIS_TYPE = 0
CLASSIFICATION_TYPE = U
NORAD_CAT_ID   = 20443
ELEMENT_SET_NO = 999
REV_AT_EPOCH   = 88898
BSTAR          = .10199639E-3
MEAN_MOTION_DOT = .278E-5
MEAN_MOTION_DDOT = 0

