COSMOS 1933             
1 18958U 88020A   26042.09077526  .00003503  00000+0  17208-3 0  9990
2 18958  82.5122 277.2289 0003023 310.3088  49.7881 15.17751572 46199
SL-3 R/B                
1 19046U 88032B   26042.19783056  .00006793  00000+0  31997-3 0  9990
2 19046  97.5151  25.5585 0025167 330.4491  29.5319 15.19567005 48083
SL-16 R/B               
1 19120U 88039B   26042.20446783  .00000037  00000+0  40112-4 0  9990
2 19120  71.0147 124.5539 0021128  14.6656 345.5077 14.19611778954628
COSMOS 1953             
1 19210U 88050A   26041.84576145  .00010672  00000+0  38908-3 0  9993
2 19210  82.5092 185.2273 0010787 214.6327 145.4211 15.27984376 33687
SL-8 R/B                
1 19257U 88053B   26041.83051955  .00000269  00000+0  95755-4 0  9998
2 19257  74.0482 161.9697 0020497 346.1390 130.7143 14.38899516972739
COSMOS 1975             
1 19573U 88093A   26041.67565570  .00009151  00000+0  33751-3 0  9994
2 19573  82.5220 144.7854 0010338 264.4267  95.5793 15.27594141 15288
SL-14 R/B               
1 19574U 88093B   26042.26896840  .00000488  00000+0  53253-4 0  9992
2 19574  82.5279  66.8529 0022046 123.2766 345.9342 14.85626192997119
SL-16 R/B               
1 19650U 88102B   26041.85172509  .00000311  00000+0  18123-3 0  9992
2 19650  70.9978 207.9623 0012560  45.7314 314.4838 14.16148449923096
INTERCOSMOS 24          
1 20261U 89080A   26042.19425162  .00000549  00000+0  15882-3 0  9994
2 20261  82.6064 121.6507 1187892 354.3538   4.5081 12.59521082663466
SL-14 R/B               
1 20262U 89080C   26041.90975704  .00000469  00000+0  14193-3 0  9990
2 20262  82.5947 190.3767 1229494 245.9844 100.7933 12.50460277656801
DELTA 1 R/B             
1 20323U 89089B   26041.99578789  .00000392  00000+0  10579-3 0  9997
2 20323  97.0724 253.6766 0068386 205.9853 153.7907 14.50640671891867
ARIANE 40 R/B           
1 20443U 90005H   26042.12878632  .00000278  00000+0  10200-3 0  9990
2 20443  98.3144 103.5739 0008929 286.1162  73.9043 14.39852498888986
